CELESTIS-02             
1 25160U 98007D   23165.26543428  .00000093  00000+0  99051-4 0  9998
2 25160 107.9904 275.5011 0063605 212.4875 168.3022 14.21777792314508
CELESTIS-03             
1 26034U 99070C   23165.38373912  .00167056  00000+0  20858-2 0  9992
2 26034  98.2683 218.7136 0004508 246.3334 113.7447 15.59279968276444
